STARLINK-2051
1 17661C 21012AT  21326.10087164 -.00018583  00000-0 -12446-2 0  3261
2 17661  53.0547 253.2782 0002112  68.3871   8.6996 15.06431592    13
